id,osm_type,lat,lon,label,island,distance_m,toilets_num,image_url,missing_tags,wikimedia_commons_title,wikimedia_commons_url,access,opening_hours,fee,wheelchair,toilets:number,unisex,drinking_water,changing_table,toilet:paper,indoor,operator,website,source,wikidata,wikimedia_commons,image
426925731,node,59.6602993,18.9156089,SAT Furusund,Furusund,17.0,1,,"access, opening_hours, fee, wheelchair, toilets:number, unisex, drinking_water, changing_table, toilet:paper, indoor, operator, website, source",,,,,,,,,,,,,,,,,,
863394740,node,59.41759050000001,18.5593101,SAT Grinda,Grinda,6.8,1,,"access, opening_hours, toilets:number, unisex, drinking_water, changing_table, toilet:paper, indoor, operator, website, source",,,,,no,limited,,,,,,,,,,,,
863394751,node,59.4174664,18.5587252,SAT Grinda,Grinda,3.7,1,,"access, opening_hours, toilets:number, unisex, drinking_water, changing_table, toilet:paper, indoor, operator, website, source",,,,,no,limited,,,,,,,,,,,,
863394827,node,59.4079202,18.5549403,SAT Grinda,Grinda,3.6,1,,"access, opening_hours, toilets:number, unisex, drinking_water, changing_table, toilet:paper, indoor, operator, website, source",,,,,no,yes,,,,,,,,,,,,
863423228,node,59.40698770000001,18.5645766,SAT Grinda,Grinda,9.3,1,,"access, opening_hours, fee, wheelchair, toilets:number, unisex, drinking_water, changing_table, toilet:paper, indoor, operator, website, source",,,,,,,,,,,,,,,,,,
863423239,node,59.41182870000001,18.5579106,SAT Grinda,Grinda,4.5,1,,"access, opening_hours, fee, wheelchair, toilets:number, unisex, drinking_water, changing_table, toilet:paper, indoor, operator, website, source",,,,,,,,,,,,,,,,,,
863423311,node,59.40754569999999,18.5598839,SAT Grinda,Grinda,4.1,1,,"access, opening_hours, fee, wheelchair, toilets:number, unisex, drinking_water, changing_table, toilet:paper, indoor, operator, website, source",,,,,,,,,,,,,,,,,,
863423335,node,59.407042600000004,18.564490299999996,SAT Grinda,Grinda,13.0,1,,"access, opening_hours, fee, wheelchair, toilets:number, unisex, drinking_water, changing_table, toilet:paper, indoor, operator, website, source",,,,,,,,,,,,,,,,,,
1234107386,node,58.969961999999974,18.3580729,SAT Utö,Utö,17.1,1,,"opening_hours, fee, wheelchair, toilets:number, unisex, drinking_water, changing_table, toilet:paper, indoor, operator, website, source",,,no,,,,,,,,,,,,,,,
1412263117,node,58.91019489999999,18.218038500000002,SAT Ålö,Ålö,35.0,1,https://commons.wikimedia.org/entity/M163246546,"opening_hours, wheelchair, toilets:number, unisex, drinking_water, changing_table, toilet:paper, indoor, website, source","Category:Ålö_storsand,_public_toilets",https://commons.wikimedia.org/wiki/File:Category:%C3%85l%C3%B6_storsand%2C_public_toilets,yes,,no,,,,,,,,Skärgårdsstiftelsen,,,,"Category:Ålö_storsand,_public_toilets",https://commons.wikimedia.org/entity/M163246546
2225378750,node,59.04984830000001,18.5199205,SAT Fjärdlång,Fjärdlång,10.2,2,https://upload.wikimedia.org/wikipedia/commons/thumb/c/c6/SAT_Fj%C3%A4rdl%C3%A5ng_2025_april_toalett_%282%29.jpg/1024px-SAT_Fj%C3%A4rdl%C3%A5ng_2025_april_toalett_%282%29.jpg,"drinking_water, toilet:paper, indoor, website, source",Category:Fjärdlång_public_toilets,https://commons.wikimedia.org/wiki/File:Category:Fj%C3%A4rdl%C3%A5ng_public_toilets,yes,24/7,no,no,2,yes,,no,,,Skärgårdsstiftelsen,,,,Category:Fjärdlång_public_toilets,https://upload.wikimedia.org/wikipedia/commons/thumb/c/c6/SAT_Fj%C3%A4rdl%C3%A5ng_2025_april_toalett_%282%29.jpg/1024px-SAT_Fj%C3%A4rdl%C3%A5ng_2025_april_toalett_%282%29.jpg
2285332792,node,59.40622339999999,18.575361999999995,SAT Grinda,Grinda,10.8,1,https://upload.wikimedia.org/wikipedia/commons/4/45/Grinda_2023_Klubbudden.jpg,"access, opening_hours, fee, wheelchair, toilets:number, unisex, drinking_water, changing_table, toilet:paper, indoor, operator, website, source",,,,,,,,,,,,,,,,,,https://upload.wikimedia.org/wikipedia/commons/4/45/Grinda_2023_Klubbudden.jpg
2285332799,node,59.4172161,18.557592800000002,SAT Grinda,Grinda,2.6,1,,"access, opening_hours, toilets:number, unisex, drinking_water, changing_table, toilet:paper, indoor, operator, website, source",,,,,no,limited,,,,,,,,,,,,
2451364941,node,58.9611425,18.339586699999998,SAT Utö,Utö,34.5,1,,"access, opening_hours, fee, wheelchair, toilets:number, unisex, drinking_water, changing_table, toilet:paper, indoor, operator, website, source",,,,,,,,,,,,,,,,,,
2495934893,node,59.28790990000001,18.9170226,SAT Sandhamn,Sandön,7.8,1,,"access, opening_hours, toilets:number, drinking_water, changing_table, toilet:paper, indoor, operator, website, source",,,,,no,yes,,yes,,,,,,,,,,
2550378583,node,59.0306645,18.5116261,SAT Fjärdlång,Fjärdlång,18.9,1,,"access, opening_hours, fee, wheelchair, toilets:number, unisex, drinking_water, changing_table, toilet:paper, indoor, website, source",,,,,,,,,,,,,Skärgårdsstiftelsen,,,,,
2550378600,node,59.031991500000004,18.519927800000005,SAT Fjärdlång,Fjärdlång,11.5,1,,"access, opening_hours, fee, wheelchair, toilets:number, unisex, drinking_water, changing_table, toilet:paper, indoor, website, source",,,,,,,,,,,,,Skärgårdsstiftelsen,,,,,
2550380413,node,59.047048100000005,18.522849000000004,SAT Fjärdlång,Fjärdlång,39.1,1,,"wheelchair, toilets:number, drinking_water, toilet:paper, indoor, website, source",,,yes,24/7,no,,,yes,,no,,,Skärgårdsstiftelsen,,,,,
2943477509,node,59.03638039999999,18.519132,SAT Fjärdlång,Fjärdlång,5.0,1,,"access, opening_hours, fee, wheelchair, toilets:number, unisex, drinking_water, changing_table, toilet:paper, indoor, operator, website, source",,,,,,,,,,,,,,,,,,
4239095028,node,59.4071649,18.5563732,SAT Grinda,Grinda,117.2,1,,"access, opening_hours, toilets:number, unisex, drinking_water, changing_table, toilet:paper, indoor, operator, website, source",,,,,no,no,,,,,,,,,,,,
4239166142,node,59.4092087,18.5756034,SAT Grinda,Grinda,13.3,1,,"access, opening_hours, fee, toilets:number, unisex, drinking_water, changing_table, toilet:paper, indoor, operator, website, source",,,,,,no,,,,,,,,,,,,
4314791694,node,58.9252493,18.1684185,SAT Rånö,Rånö,44.0,1,https://upload.wikimedia.org/wikipedia/commons/thumb/5/5d/R%C3%A5n%C3%B6_20250802_09.jpg/1536px-R%C3%A5n%C3%B6_20250802_09.jpg,"opening_hours, toilets:number, unisex, changing_table, toilet:paper, indoor, operator, website, source",Category:Skutviken_public_toilet_Rånö,https://commons.wikimedia.org/wiki/File:Category:Skutviken_public_toilet_R%C3%A5n%C3%B6,yes,,no,no,,,no,,,,,,,,Category:Skutviken_public_toilet_Rånö,https://upload.wikimedia.org/wikipedia/commons/thumb/5/5d/R%C3%A5n%C3%B6_20250802_09.jpg/1536px-R%C3%A5n%C3%B6_20250802_09.jpg
4962580122,node,59.0366583,18.5174209,SAT Fjärdlång,Fjärdlång,82.4,1,,"access, opening_hours, fee, wheelchair, toilets:number, unisex, drinking_water, changing_table, toilet:paper, indoor, operator, website, source",,,,,,,,,,,,,,,,,,
4986599082,node,59.776907599999994,19.0907483,SAT Lidö,Lidö,7.8,1,,"access, opening_hours, toilets:number, unisex, drinking_water, changing_table, toilet:paper, indoor, operator, website, source",,,,,no,no,,,,,,,,,,,,
4986606253,node,59.77325660000001,19.079320699999997,SAT Lidö,Lidö,50.7,1,,"access, opening_hours, fee, wheelchair, toilets:number, unisex, drinking_water, changing_table, toilet:paper, indoor, website, source",,,,,,,,,,,,,Skärgårdsstiftelsen,,,,,
5005120552,node,58.97020909999999,18.324467800000004,SAT Utö,Utö,33.6,1,,"opening_hours, fee, toilets:number, changing_table, toilet:paper, indoor, operator, website, source",,,customers,,,no,,yes,yes,,,,,,,,,
5005791361,node,58.966992099999985,18.3185622,SAT Utö,Utö,19.1,1,,"opening_hours, fee, toilets:number, drinking_water, changing_table, toilet:paper, indoor, website, source",,,customers,,,limited,,yes,,,,,Utö Camping,,,,,
5005793728,node,58.9680089,18.3194495,SAT Utö,Utö,10.4,1,,"access, opening_hours, fee, wheelchair, toilets:number, unisex, drinking_water, changing_table, toilet:paper, indoor, operator, website, source",,,,,,,,,,,,,,,,,,
5006428827,node,58.9702909,18.3247412,SAT Utö,Utö,17.2,1,,"opening_hours, fee, wheelchair, toilets:number, drinking_water, changing_table, toilet:paper, indoor, operator, website, source",,,yes,,,,,yes,,,,,,,,,,
5728810295,node,58.919449900000004,18.192626700000005,SAT Ålö,Ålö,63.1,1,https://upload.wikimedia.org/wikipedia/commons/thumb/4/41/%C3%85l%C3%B6_och_Stora_sand_20250805_05.jpg/1280px-%C3%85l%C3%B6_och_Stora_sand_20250805_05.jpg,"opening_hours, wheelchair, toilets:number, drinking_water, changing_table, toilet:paper, indoor, website, source",Category:Båtshaket toilets,https://commons.wikimedia.org/wiki/File:Category:B%C3%A5tshaket%20toilets,customers,,no,,,yes,,,,,Båtshaket,,,,Category:Båtshaket toilets,https://upload.wikimedia.org/wikipedia/commons/thumb/4/41/%C3%85l%C3%B6_och_Stora_sand_20250805_05.jpg/1280px-%C3%85l%C3%B6_och_Stora_sand_20250805_05.jpg
5728811148,node,58.92029519999999,18.1955009,SAT Ålö,Ålö,8.2,1,https://upload.wikimedia.org/wikipedia/commons/8/83/SAT_%C3%85l%C3%B6_2025_maj_%28241%29_toalett.jpg,"wheelchair, toilets:number, toilet:paper, indoor, website, source","Category:Ålö_brygga,_public_toilets",https://commons.wikimedia.org/wiki/File:Category:%C3%85l%C3%B6_brygga%2C_public_toilets,yes,24/7,no,,,yes,no,no,,,Skärgårdsstiftelsen,,,,"Category:Ålö_brygga,_public_toilets",https://upload.wikimedia.org/wikipedia/commons/8/83/SAT_%C3%85l%C3%B6_2025_maj_%28241%29_toalett.jpg
5734098673,node,59.28911689999998,18.9056252,SAT Sandhamn,Sandön,47.0,1,https://upload.wikimedia.org/wikipedia/commons/thumb/c/c9/Fl%C3%A4skberget_AED.jpg/2560px-Fl%C3%A4skberget_AED.jpg,"wheelchair, toilets:number, unisex, drinking_water, changing_table, toilet:paper, indoor, operator, website, source",,,public,8:00-18:00,no,,,,,,,,,,,,,https://upload.wikimedia.org/wikipedia/commons/thumb/c/c9/Fl%C3%A4skberget_AED.jpg/2560px-Fl%C3%A4skberget_AED.jpg
5798509131,node,58.9280737,18.1906172,SAT Rånö,Rånö,28.2,1,,"opening_hours, fee, wheelchair, toilets:number, unisex, changing_table, toilet:paper, indoor, operator, website, source",,,yes,,,,,,no,,,,,,,,,
5860556339,node,59.40629880000001,18.8832483,SAT Möja,Möja,12.0,1,,"access, opening_hours, fee, wheelchair, toilets:number, unisex, drinking_water, changing_table, toilet:paper, indoor, operator, website, source",,,,,,,,,,,,,,,,,,
6724706158,node,58.959321999999986,18.332807399999997,SAT Utö,Utö,6.0,1,,"access, opening_hours, fee, wheelchair, toilets:number, unisex, drinking_water, changing_table, toilet:paper, indoor, operator, website, source",,,,,,,,,,,,,,,,,,
8870415588,node,59.4048042,18.573793,SAT Grinda,Grinda,188.0,1,,"opening_hours, wheelchair, toilets:number, changing_table, toilet:paper, indoor, operator, website, source",,,yes,,no,,,yes,no,,,,,,,,,
9011995676,node,59.19724539999999,18.7367793,SAT Nämdö,Nämdö,9.1,1,,"opening_hours, fee, toilets:number, drinking_water, changing_table, toilet:paper, indoor, operator, website, source",,,yes,,,no,,yes,,,,,,,,,,
9907275660,node,58.744799100000016,17.8646791,SAT Landsort,Öja,24.6,1,,"toilets:number, drinking_water, toilet:paper, indoor, operator, website, source",,,yes,24/7,no,no,,yes,,no,,,,,,,,
11080859473,node,59.048948199999984,18.5226354,SAT Fjärdlång,Fjärdlång,51.6,1,,"opening_hours, fee, toilets:number, drinking_water, toilet:paper, indoor, website, source",,,yes,,,limited,,yes,,no,,,Skärgårdsstiftelsen,,,,,
11084999217,node,59.037049,18.5153119,SAT Fjärdlång,Fjärdlång,14.8,1,https://upload.wikimedia.org/wikipedia/commons/b/bd/SAT_Fj%C3%A4rdl%C3%A5ng_2025_april_toaletter_t%C3%A4ltplats.jpg,"opening_hours, fee, wheelchair, toilets:number, unisex, drinking_water, changing_table, toilet:paper, indoor, operator, website, source",Category:Fjärdlång_toilet_11084999217,https://commons.wikimedia.org/wiki/File:Category:Fj%C3%A4rdl%C3%A5ng_toilet_11084999217,yes,,,,,,,,,,,,,,Category:Fjärdlång_toilet_11084999217,https://upload.wikimedia.org/wikipedia/commons/b/bd/SAT_Fj%C3%A4rdl%C3%A5ng_2025_april_toaletter_t%C3%A4ltplats.jpg
11092271868,node,58.9372489,18.182648899999997,SAT Rånö,Rånö,39.7,1,,"access, opening_hours, fee, wheelchair, toilets:number, unisex, drinking_water, changing_table, toilet:paper, indoor, operator, website, source",,,,,,,,,,,,,,,,,,
12723432176,node,58.92704649999999,18.1899815,SAT Rånö,Rånö,42.5,2,https://upload.wikimedia.org/wikipedia/commons/thumb/f/f8/SAT_R%C3%A5n%C3%B6_toaletter_vid_t%C3%A4ltplatsen.jpg/3024px-SAT_R%C3%A5n%C3%B6_toaletter_vid_t%C3%A4ltplatsen.jpg,"wheelchair, drinking_water, changing_table, toilet:paper, indoor, website, source",Category:Rånö_camp_site_toilets,https://commons.wikimedia.org/wiki/File:Category:R%C3%A5n%C3%B6_camp_site_toilets,yes,24/7,no,,2,yes,,,,,Skärgårdsstiftelsen,,,,Category:Rånö_camp_site_toilets,https://upload.wikimedia.org/wikipedia/commons/thumb/f/f8/SAT_R%C3%A5n%C3%B6_toaletter_vid_t%C3%A4ltplatsen.jpg/3024px-SAT_R%C3%A5n%C3%B6_toaletter_vid_t%C3%A4ltplatsen.jpg
13041911527,node,58.744608299999996,17.8652507,SAT Landsort,Öja,9.3,1,,"toilets:number, drinking_water, toilet:paper, indoor, operator, website, source",,,yes,24/7,no,no,,yes,,no,,,,,,,,
13045581191,node,58.91968700000001,18.1764135,SAT Rånö,Rånö,31.6,2,,"opening_hours, drinking_water, toilet:paper, indoor, operator, website, source",,,customers,,no,no,2,yes,,no,,,,,,,,
13045581192,node,58.9198493,18.1751578,SAT Rånö,Rånö,10.1,1,,"toilets:number, drinking_water, toilet:paper, indoor, website, source",,,yes,24/7,no,yes,,yes,,yes,,,Skärgårdsstiftelsen,,,,,
13050416339,node,58.97851279999998,18.3634318,SAT Utö,Utö,1.9,1,https://upload.wikimedia.org/wikipedia/commons/thumb/4/47/SAT_Ut%C3%B6_20250805_vandring_Norra_08.jpg/3024px-SAT_Ut%C3%B6_20250805_vandring_Norra_08.jpg,"opening_hours, toilets:number, drinking_water, toilet:paper, indoor, operator, website, source",Category:Utö_public_toilets_13050416339,https://commons.wikimedia.org/wiki/File:Category:Ut%C3%B6_public_toilets_13050416339,yes,,no,no,,yes,,no,,,,,,,Category:Utö_public_toilets_13050416339,https://upload.wikimedia.org/wikipedia/commons/thumb/4/47/SAT_Ut%C3%B6_20250805_vandring_Norra_08.jpg/3024px-SAT_Ut%C3%B6_20250805_vandring_Norra_08.jpg
507890625,way,59.77867059999998,19.091762,SAT Lidö,Lidö,83.2,2,,"opening_hours, fee, wheelchair, unisex, drinking_water, changing_table, toilet:paper, indoor, website, source",,,yes,,,,2,,,,,,Skärgårdsstiftelsen,,,,,
703944414,way,59.04464180000001,18.5124711,SAT Fjärdlång,Fjärdlång,180.8,1,,"opening_hours, wheelchair, toilets:number, changing_table, toilet:paper, indoor, website, source",,,yes,,no,,,yes,no,,,,Skärgårdsstiftelsen,,,,,
833809121,way,59.1930304,18.7155773,SAT Nämdö,Nämdö,7.4,1,,"opening_hours, wheelchair, toilets:number, drinking_water, changing_table, toilet:paper, indoor, website, source",,,yes,,no,,,yes,,,,,Skärgårdsstiftelsen,,,,,
1145185653,way,59.27390569999999,18.924231799999998,SAT Sandhamn,Sandön,6.6,1,https://upload.wikimedia.org/wikipedia/commons/thumb/8/83/SAT_Sandhamn_2025_april_Toaletter_Sandhamn.jpg/960px-SAT_Sandhamn_2025_april_Toaletter_Sandhamn.jpg,"opening_hours, fee, toilets:number, drinking_water, toilet:paper, indoor, operator, website, source",Category:Sandhamn_public_toilet_1145185653,https://commons.wikimedia.org/wiki/File:Category:Sandhamn_public_toilet_1145185653,yes,,,no,,yes,,no,,,,,,,Category:Sandhamn_public_toilet_1145185653,https://upload.wikimedia.org/wikipedia/commons/thumb/8/83/SAT_Sandhamn_2025_april_Toaletter_Sandhamn.jpg/960px-SAT_Sandhamn_2025_april_Toaletter_Sandhamn.jpg
1145185654,way,59.274363399999984,18.921221,SAT Sandhamn,Sandön,6.5,1,,"opening_hours, fee, toilets:number, drinking_water, toilet:paper, indoor, operator, website, source",,,yes,,,no,,yes,,no,,,,,,,,
1305279425,way,59.40703280000001,18.8854126,SAT Möja,Möja,8.5,1,,"opening_hours, fee, toilets:number, drinking_water, toilet:paper, indoor, operator, website, source",,,customers,,,no,,yes,,no,,,,,,,,
1305281226,way,59.41031190000002,18.8871311,SAT Möja,Möja,33.3,1,,"opening_hours, fee, wheelchair, toilets:number, drinking_water, changing_table, toilet:paper, indoor, operator, website, source",,,customers,,,,,yes,,,,,,,,,,
1416467437,way,59.03652229999997,18.5129033,SAT Fjärdlång,Fjärdlång,93.4,4,https://upload.wikimedia.org/wikipedia/commons/4/47/SAT_Fj%C3%A4rdl%C3%A5ng_2025_april_toalett_reception.jpg,"wheelchair, drinking_water, toilet:paper, indoor, operator, website, source",Category:Fjärdlång_public_toilets,https://commons.wikimedia.org/wiki/File:Category:Fj%C3%A4rdl%C3%A5ng_public_toilets,yes,24/7,no,,4,yes,,no,,,,,,,Category:Fjärdlång_public_toilets,https://upload.wikimedia.org/wikipedia/commons/4/47/SAT_Fj%C3%A4rdl%C3%A5ng_2025_april_toalett_reception.jpg
