id,osm_type,lat,lon,label,island,distance_m,toilets_num,image_url,missing_tags,wikimedia_commons_title,wikimedia_commons_url,mapillary_links,access,opening_hours,fee,wheelchair,toilets:num_chambers,unisex,drinking_water,changing_table,toilets:paper_supplied,indoor,operator,website,source,wikidata,wikimedia_commons,image,mapillary,toilets:handwashing,toilets:position
426925731,node,59.6602993,18.9156089,SAT Furusund,Furusund,17.0,1,,"access, opening_hours, fee, wheelchair, toilets:num_chambers, unisex, drinking_water, changing_table, toilets:paper_supplied, indoor, operator, website, source",,,[],,,,,,,,,,,,,,,,,,,
863394740,node,59.41759050000001,18.5593101,SAT Grinda,Grinda,6.8,1,,"access, opening_hours, toilets:num_chambers, unisex, drinking_water, changing_table, toilets:paper_supplied, indoor, operator, website, source",,,[],,,no,limited,,,,,,,,,,,,,,,
863394751,node,59.4174664,18.5587252,SAT Grinda,Grinda,3.7,1,,"access, opening_hours, toilets:num_chambers, unisex, drinking_water, changing_table, toilets:paper_supplied, indoor, operator, website, source",,,[],,,no,limited,,,,,,,,,,,,,,,
863394827,node,59.4079202,18.5549403,SAT Grinda,Grinda,3.6,1,,"access, opening_hours, toilets:num_chambers, unisex, drinking_water, changing_table, toilets:paper_supplied, indoor, operator, website, source",,,[],,,no,yes,,,,,,,,,,,,,,,
863423228,node,59.40698770000001,18.5645766,SAT Grinda,Grinda,9.3,1,,"access, opening_hours, fee, wheelchair, toilets:num_chambers, unisex, drinking_water, changing_table, toilets:paper_supplied, indoor, operator, website, source",,,[],,,,,,,,,,,,,,,,,,,
863423239,node,59.41182870000001,18.5579106,SAT Grinda,Grinda,4.5,1,,"access, opening_hours, fee, wheelchair, toilets:num_chambers, unisex, drinking_water, changing_table, toilets:paper_supplied, indoor, operator, website, source",,,[],,,,,,,,,,,,,,,,,,,
863423311,node,59.40754569999999,18.5598839,SAT Grinda,Grinda,4.1,1,,"access, opening_hours, fee, wheelchair, toilets:num_chambers, unisex, drinking_water, changing_table, toilets:paper_supplied, indoor, operator, website, source",,,[],,,,,,,,,,,,,,,,,,,
863423335,node,59.407042600000004,18.564490299999996,SAT Grinda,Grinda,13.0,1,,"access, opening_hours, fee, wheelchair, toilets:num_chambers, unisex, drinking_water, changing_table, toilets:paper_supplied, indoor, operator, website, source",,,[],,,,,,,,,,,,,,,,,,,
1234107386,node,58.969961999999974,18.3580729,SAT Utö,Utö,17.1,1,,"opening_hours, fee, wheelchair, toilets:num_chambers, unisex, drinking_water, changing_table, toilets:paper_supplied, indoor, operator, website, source",,,[],no,,,,,,,,,,,,,,,,,,
1401739421,node,59.47595010000002,18.8176987,SAT Finnhamn,Finnhamn,144.3,1,https://upload.wikimedia.org/wikipedia/commons/thumb/c/c1/SAT_Finnhamn_camp_site_south_08.jpg/1280px-SAT_Finnhamn_camp_site_south_08.jpg,"access, opening_hours, toilets:num_chambers, drinking_water, changing_table, toilets:paper_supplied, indoor, operator, website, source",,,[],,,no,yes,,yes,,,,,,,,,,https://upload.wikimedia.org/wikipedia/commons/thumb/c/c1/SAT_Finnhamn_camp_site_south_08.jpg/1280px-SAT_Finnhamn_camp_site_south_08.jpg,,no,
1401993169,node,59.47675959999999,18.8238701,SAT Finnhamn,Finnhamn,16.0,1,,"access, opening_hours, toilets:num_chambers, unisex, drinking_water, changing_table, toilets:paper_supplied, indoor, operator, website, source",,,[],,,no,no,,,,,,,,,,,,,,,
1412263117,node,58.91019489999999,18.218038500000002,SAT Ålö,Ålö,35.0,1,https://commons.wikimedia.org/entity/M163246546,"opening_hours, wheelchair, toilets:num_chambers, unisex, drinking_water, changing_table, toilets:paper_supplied, indoor, website, source","Category:Ålö_storsand,_public_toilets",https://commons.wikimedia.org/wiki/Category:%C3%85l%C3%B6_storsand%2C_public_toilets,[],yes,,no,,,,,,,,Skärgårdsstiftelsen,,,,"Category:Ålö_storsand,_public_toilets",https://commons.wikimedia.org/entity/M163246546,,no,
1848869434,node,59.84269910000001,19.1192646,SAT Arholma,Arholma,7.5,1,,"opening_hours, toilets:num_chambers, drinking_water, toilets:paper_supplied, indoor, website, source",,,[],yes,,no,no,,yes,,no,,,Norrtälje kommun,,,,,,,,
2225378750,node,59.04984830000001,18.5199205,SAT Fjärdlång,Fjärdlång,10.2,2,https://upload.wikimedia.org/wikipedia/commons/thumb/c/c6/SAT_Fj%C3%A4rdl%C3%A5ng_2025_april_toalett_%282%29.jpg/1024px-SAT_Fj%C3%A4rdl%C3%A5ng_2025_april_toalett_%282%29.jpg,"toilets:num_chambers, drinking_water, indoor, website, source",Category:Fjärdlång_public_toilets,https://commons.wikimedia.org/wiki/Category:Fj%C3%A4rdl%C3%A5ng_public_toilets,[],yes,24/7,no,no,,yes,,no,yes,,Skärgårdsstiftelsen,,,,Category:Fjärdlång_public_toilets,https://upload.wikimedia.org/wikipedia/commons/thumb/c/c6/SAT_Fj%C3%A4rdl%C3%A5ng_2025_april_toalett_%282%29.jpg/1024px-SAT_Fj%C3%A4rdl%C3%A5ng_2025_april_toalett_%282%29.jpg,,no,
2285332792,node,59.40622339999999,18.575361999999995,SAT Grinda,Grinda,10.8,1,https://upload.wikimedia.org/wikipedia/commons/4/45/Grinda_2023_Klubbudden.jpg,"access, opening_hours, fee, wheelchair, toilets:num_chambers, unisex, drinking_water, changing_table, toilets:paper_supplied, indoor, operator, website, source",,,[],,,,,,,,,,,,,,,,https://upload.wikimedia.org/wikipedia/commons/4/45/Grinda_2023_Klubbudden.jpg,,,
2285332799,node,59.4172161,18.557592800000002,SAT Grinda,Grinda,2.6,1,,"access, opening_hours, toilets:num_chambers, unisex, drinking_water, changing_table, toilets:paper_supplied, indoor, operator, website, source",,,[],,,no,limited,,,,,,,,,,,,,,,
2451364941,node,58.9611425,18.339586699999998,SAT Utö,Utö,34.5,1,,"access, opening_hours, fee, wheelchair, toilets:num_chambers, unisex, drinking_water, changing_table, toilets:paper_supplied, indoor, operator, website, source",,,[],,,,,,,,,,,,,,,,,,,
2495934893,node,59.28790990000001,18.9170226,SAT Sandhamn,Sandön,7.8,1,,"access, opening_hours, toilets:num_chambers, drinking_water, changing_table, toilets:paper_supplied, indoor, operator, website, source",,,[],,,no,yes,,yes,,,,,,,,,,,,yes,
2550378583,node,59.0306645,18.5116261,SAT Fjärdlång,Fjärdlång,18.9,1,,"access, opening_hours, fee, wheelchair, toilets:num_chambers, unisex, drinking_water, changing_table, toilets:paper_supplied, indoor, website, source",,,[],,,,,,,,,,,Skärgårdsstiftelsen,,,,,,,,
2550378600,node,59.031991500000004,18.519927800000005,SAT Fjärdlång,Fjärdlång,11.5,1,,"access, opening_hours, fee, wheelchair, toilets:num_chambers, unisex, drinking_water, changing_table, toilets:paper_supplied, indoor, website, source",,,[],,,,,,,,,,,Skärgårdsstiftelsen,,,,,,,,
2550380413,node,59.047048100000005,18.522849000000004,SAT Fjärdlång,Fjärdlång,39.1,1,,"wheelchair, toilets:num_chambers, drinking_water, toilets:paper_supplied, indoor, website, source",,,[],yes,24/7,no,,,yes,,no,,,Skärgårdsstiftelsen,,,,,,,no,
2908785465,node,59.480579899999995,18.804356,SAT Finnhamn,Finnhamn,14.9,1,,"access, opening_hours, toilets:num_chambers, unisex, drinking_water, toilets:paper_supplied, indoor, operator, website, source",,,[],,,no,no,,,,no,,,,,,,,,,no,
2908787775,node,59.48378289999997,18.813885199999998,SAT Finnhamn,Finnhamn,10.5,1,,"access, opening_hours, fee, wheelchair, toilets:num_chambers, unisex, drinking_water, changing_table, toilets:paper_supplied, indoor, operator, website, source",,,[],,,,,,,,,,,,,,,,,,,
2908787815,node,59.48098240000001,18.8125524,SAT Finnhamn,Finnhamn,7.3,2,https://upload.wikimedia.org/wikipedia/commons/thumb/8/8c/SAT_Finnhamn_Idholmen_toalett_stugbyn.jpg/960px-SAT_Finnhamn_Idholmen_toalett_stugbyn.jpg,"access, opening_hours, toilets:num_chambers, drinking_water, changing_table, toilets:paper_supplied, indoor, website, source",,,[],,,no,no,,yes,,,,,Skärgårdsstiftelsen,,,,,https://upload.wikimedia.org/wikipedia/commons/thumb/8/8c/SAT_Finnhamn_Idholmen_toalett_stugbyn.jpg/960px-SAT_Finnhamn_Idholmen_toalett_stugbyn.jpg,,no,
2908787816,node,59.4789819,18.8133827,SAT Finnhamn,Finnhamn,2.2,1,,"access, opening_hours, toilets:num_chambers, unisex, drinking_water, changing_table, toilets:paper_supplied, indoor, operator, website, source",,,[],,,no,no,,,,,,,,,,,,,,,
2943477509,node,59.03638039999999,18.519132,SAT Fjärdlång,Fjärdlång,5.0,1,,"access, opening_hours, fee, wheelchair, toilets:num_chambers, unisex, drinking_water, changing_table, toilets:paper_supplied, indoor, operator, website, source",,,[],,,,,,,,,,,,,,,,,,,
2960940412,node,59.85984110000001,19.1225337,SAT Arholma,Arholma,22.0,1,,"opening_hours, fee, wheelchair, toilets:num_chambers, unisex, drinking_water, changing_table, toilets:paper_supplied, indoor, operator, website, source",,,[],customers,,,,,,,,,,,,,,,,,,
4239095028,node,59.4071649,18.5563732,SAT Grinda,Grinda,117.2,1,,"access, opening_hours, toilets:num_chambers, unisex, drinking_water, changing_table, toilets:paper_supplied, indoor, operator, website, source",,,[],,,no,no,,,,,,,,,,,,,,,
4239166142,node,59.4092087,18.5756034,SAT Grinda,Grinda,13.3,1,,"access, opening_hours, fee, toilets:num_chambers, unisex, drinking_water, changing_table, toilets:paper_supplied, indoor, operator, website, source",,,[],,,,no,,,,,,,,,,,,,,,
4314791694,node,58.9252493,18.1684185,SAT Rånö,Rånö,44.0,1,,"opening_hours, toilets:num_chambers, unisex, changing_table, toilets:paper_supplied, indoor, operator, website, source",,,[],yes,,no,no,,,no,,,,,,,,,,,no,seated
4962580122,node,59.0366583,18.5174209,SAT Fjärdlång,Fjärdlång,82.4,1,,"access, opening_hours, fee, wheelchair, toilets:num_chambers, unisex, drinking_water, changing_table, toilets:paper_supplied, indoor, operator, website, source",,,[],,,,,,,,,,,,,,,,,,,
4964700616,node,59.466417599999986,18.753954199999995,SAT Ingmarsö,Ingmarsö,51.8,1,,"opening_hours, fee, wheelchair, toilets:num_chambers, unisex, drinking_water, changing_table, toilets:paper_supplied, indoor, operator, website, source",,,[],yes,,,,,,,,,,,,,,,,,,
4986599082,node,59.776907599999994,19.0907483,SAT Lidö,Lidö,7.8,1,,"access, opening_hours, toilets:num_chambers, unisex, drinking_water, changing_table, toilets:paper_supplied, indoor, operator, website, source",,,[],,,no,no,,,,,,,,,,,,,,,
4986606253,node,59.77325660000001,19.079320699999997,SAT Lidö,Lidö,50.7,1,,"access, opening_hours, fee, wheelchair, toilets:num_chambers, unisex, drinking_water, changing_table, toilets:paper_supplied, indoor, website, source",,,[],,,,,,,,,,,Skärgårdsstiftelsen,,,,,,,,
5005120552,node,58.97020909999999,18.324467800000004,SAT Utö,Utö,33.6,1,,"opening_hours, fee, toilets:num_chambers, changing_table, toilets:paper_supplied, indoor, operator, website, source",,,[],customers,,,no,,yes,yes,,,,,,,,,,,,seated;urinal
5005791361,node,58.966992099999985,18.3185622,SAT Utö,Utö,19.1,1,,"opening_hours, fee, toilets:num_chambers, drinking_water, changing_table, indoor, website, source",,,[],customers,,,limited,,yes,,,yes,,Utö Camping,,,,,,,,
5005793728,node,58.9680089,18.3194495,SAT Utö,Utö,10.4,1,,"access, opening_hours, fee, wheelchair, toilets:num_chambers, unisex, drinking_water, changing_table, toilets:paper_supplied, indoor, operator, website, source",,,[],,,,,,,,,,,,,,,,,,,
5006428827,node,58.9702909,18.3247412,SAT Utö,Utö,17.2,1,,"opening_hours, fee, wheelchair, toilets:num_chambers, drinking_water, changing_table, toilets:paper_supplied, indoor, operator, website, source",,,[],yes,,,,,yes,,,,,,,,,,,,,
5009607109,node,59.48195009999999,18.8096596,SAT Finnhamn,Finnhamn,15.7,1,,"access, opening_hours, toilets:num_chambers, unisex, drinking_water, changing_table, toilets:paper_supplied, indoor, operator, website, source",,,[],,,no,no,,,,,,,,,,,,,,,
5728810295,node,58.919449900000004,18.192626700000005,SAT Ålö,Ålö,63.1,1,,"opening_hours, wheelchair, toilets:num_chambers, drinking_water, changing_table, toilets:paper_supplied, indoor, website, source",,,[],customers,,no,,,yes,,,,,Båtshaket,,,,,,,yes,
5728811148,node,58.92029519999999,18.1955009,SAT Ålö,Ålö,8.2,1,https://upload.wikimedia.org/wikipedia/commons/8/83/SAT_%C3%85l%C3%B6_2025_maj_%28241%29_toalett.jpg,"wheelchair, toilets:num_chambers, toilets:paper_supplied, indoor, website, source","Category:Ålö_brygga,_public_toilets",https://commons.wikimedia.org/wiki/Category:%C3%85l%C3%B6_brygga%2C_public_toilets,[],yes,24/7,no,,,yes,no,no,,,Skärgårdsstiftelsen,,,,"Category:Ålö_brygga,_public_toilets",https://upload.wikimedia.org/wikipedia/commons/8/83/SAT_%C3%85l%C3%B6_2025_maj_%28241%29_toalett.jpg,,,seated
5734098673,node,59.28911689999998,18.9056252,SAT Sandhamn,Sandön,47.0,1,https://upload.wikimedia.org/wikipedia/commons/thumb/c/c9/Fl%C3%A4skberget_AED.jpg/2560px-Fl%C3%A4skberget_AED.jpg,"wheelchair, toilets:num_chambers, unisex, drinking_water, changing_table, indoor, operator, website, source",,,[],public,8:00-18:00,no,,,,,,yes,,,,,,,https://upload.wikimedia.org/wikipedia/commons/thumb/c/c9/Fl%C3%A4skberget_AED.jpg/2560px-Fl%C3%A4skberget_AED.jpg,,yes,
5744466280,node,59.8532707,19.113137099999996,SAT Arholma,Arholma,59.7,1,,"opening_hours, fee, wheelchair, toilets:num_chambers, drinking_water, changing_table, toilets:paper_supplied, indoor, operator, website, source",,,[],yes,,,,,yes,,,,,,,,,,,,,
5745003238,node,59.8608766,19.1235092,SAT Arholma,Arholma,2.8,1,,"access, opening_hours, wheelchair, toilets:num_chambers, drinking_water, changing_table, toilets:paper_supplied, indoor, operator, website, source",,,[],,,no,,,yes,,,,,,,,,,,,,
5745003241,node,59.8543557,19.1118376,SAT Arholma,Arholma,190.6,1,,"opening_hours, wheelchair, toilets:num_chambers, drinking_water, toilets:paper_supplied, indoor, operator, website, source",,,[],yes,,no,,,yes,,no,,,,,,,,,,,
5798509131,node,58.9280737,18.1906172,SAT Rånö,Rånö,28.2,1,,"opening_hours, fee, wheelchair, toilets:num_chambers, unisex, changing_table, toilets:paper_supplied, indoor, operator, website, source",,,[],yes,,,,,,no,,,,,,,,,,,,
5856137513,node,59.478485699999986,18.793981899999995,SAT Ingmarsö,Ingmarsö,22.8,3,,"opening_hours, drinking_water, toilets:paper_supplied, indoor, operator, website, source",,,[],yes,,no,no,3,yes,,yes,,,,,,,,,,,
5860556339,node,59.40629880000001,18.8832483,SAT Möja,Möja,12.0,1,,"access, opening_hours, fee, wheelchair, toilets:num_chambers, unisex, drinking_water, changing_table, toilets:paper_supplied, indoor, operator, website, source",,,[],,,,,,,,,,,,,,,,,,,
6724706158,node,58.959321999999986,18.332807399999997,SAT Utö,Utö,6.0,1,,"access, opening_hours, fee, wheelchair, toilets:num_chambers, unisex, drinking_water, changing_table, toilets:paper_supplied, indoor, operator, website, source",,,[],,,,,,,,,,,,,,,,,,,
7997530880,node,59.0722851,18.3865883,SAT Ornö,Ornö,4.3,1,,"access, opening_hours, toilets:num_chambers, drinking_water, toilets:paper_supplied, indoor, operator, website, source",,,[],,,no,no,,yes,,no,,,,,,,,,,,
8870415588,node,59.4048042,18.573793,SAT Grinda,Grinda,188.0,1,,"opening_hours, wheelchair, toilets:num_chambers, changing_table, toilets:paper_supplied, indoor, operator, website, source",,,[],yes,,no,,,yes,no,,,,,,,,,,,,
9011995676,node,59.19724539999999,18.7367793,SAT Nämdö,Nämdö,9.1,1,,"opening_hours, fee, toilets:num_chambers, drinking_water, changing_table, toilets:paper_supplied, indoor, operator, website, source",,,[],yes,,,no,,yes,,,,,,,,,,,,,
9907275660,node,58.744799100000016,17.8646791,SAT Landsort,Öja,24.6,1,,"toilets:num_chambers, drinking_water, indoor, operator, website, source",,,[],yes,24/7,no,no,,yes,,no,yes,,,,,,,,,yes,
10049770242,node,59.47593390000001,18.7498729,SAT Ingmarsö,Ingmarsö,4.8,1,,"access, opening_hours, fee, wheelchair, toilets:num_chambers, unisex, drinking_water, changing_table, toilets:paper_supplied, indoor, operator, website, source",,,[],,,,,,,,,,,,,,,,,,,
11080859473,node,59.048948199999984,18.5226354,SAT Fjärdlång,Fjärdlång,51.6,1,,"opening_hours, fee, toilets:num_chambers, drinking_water, toilets:paper_supplied, indoor, website, source",,,[],yes,,,limited,,yes,,no,,,Skärgårdsstiftelsen,,,,,,,no,
11084999217,node,59.037049,18.5153119,SAT Fjärdlång,Fjärdlång,14.8,1,https://upload.wikimedia.org/wikipedia/commons/b/bd/SAT_Fj%C3%A4rdl%C3%A5ng_2025_april_toaletter_t%C3%A4ltplats.jpg,"access, opening_hours, fee, wheelchair, toilets:num_chambers, unisex, drinking_water, changing_table, toilets:paper_supplied, indoor, operator, website, source",,,[],,,,,,,,,,,,,,,,https://upload.wikimedia.org/wikipedia/commons/b/bd/SAT_Fj%C3%A4rdl%C3%A5ng_2025_april_toaletter_t%C3%A4ltplats.jpg,,,
11092271868,node,58.9372489,18.182648899999997,SAT Rånö,Rånö,39.7,1,,"access, opening_hours, fee, wheelchair, toilets:num_chambers, unisex, drinking_water, changing_table, toilets:paper_supplied, indoor, operator, website, source",,,[],,,,,,,,,,,,,,,,,,,
12085564579,node,59.4795502,18.8051661,SAT Finnhamn,Finnhamn,54.6,1,https://upload.wikimedia.org/wikipedia/commons/thumb/5/58/SAT_Finnhamn_2025_april_pojkarnas_udde.jpg/1024px-SAT_Finnhamn_2025_april_pojkarnas_udde.jpg,"opening_hours, fee, toilets:num_chambers, drinking_water, toilets:paper_supplied, indoor, operator, website, source",,,[],yes,,,no,,yes,,no,,,,,,,,https://upload.wikimedia.org/wikipedia/commons/thumb/5/58/SAT_Finnhamn_2025_april_pojkarnas_udde.jpg/1024px-SAT_Finnhamn_2025_april_pojkarnas_udde.jpg,,no,
12723432176,node,58.92704649999999,18.1899815,SAT Rånö,Rånö,42.5,1,https://upload.wikimedia.org/wikipedia/commons/thumb/f/f8/SAT_R%C3%A5n%C3%B6_toaletter_vid_t%C3%A4ltplatsen.jpg/3024px-SAT_R%C3%A5n%C3%B6_toaletter_vid_t%C3%A4ltplatsen.jpg,"wheelchair, toilets:num_chambers, drinking_water, changing_table, indoor, website, source",Category:Rånö_camp_site_toilets,https://commons.wikimedia.org/wiki/Category:R%C3%A5n%C3%B6_camp_site_toilets,[],public,24/7,no,,,yes,,,yes,,Skärgårdsstiftelsen,,,,Category:Rånö_camp_site_toilets,https://upload.wikimedia.org/wikipedia/commons/thumb/f/f8/SAT_R%C3%A5n%C3%B6_toaletter_vid_t%C3%A4ltplatsen.jpg/3024px-SAT_R%C3%A5n%C3%B6_toaletter_vid_t%C3%A4ltplatsen.jpg,,no,
12748135109,node,58.87168400000002,18.1313502,SAT Nåttarö,Nåttarö,14.7,1,,"access, opening_hours, fee, wheelchair, toilets:num_chambers, unisex, drinking_water, changing_table, toilets:paper_supplied, indoor, operator, website, source",,,[],,,,,,,,,,,,,,,,,,,
12815485678,node,59.6100827,18.8263119,SAT Yxlan,Yxlan,94.3,1,https://upload.wikimedia.org/wikipedia/commons/8/84/SAT_Yxlan_2025_maj_5_-_Hamnholmen_toalett_%281%29.jpg,"access, toilets:num_chambers, drinking_water, changing_table, indoor, operator, website, source",Category:Hamnholmen_toalett,https://commons.wikimedia.org/wiki/Category:Hamnholmen_toalett,[],,24/7,no,no,,yes,,,yes,,,,,,Category:Hamnholmen_toalett,https://upload.wikimedia.org/wikipedia/commons/8/84/SAT_Yxlan_2025_maj_5_-_Hamnholmen_toalett_%281%29.jpg,,no,
12836949181,node,59.47555409999999,18.821863899999997,SAT Finnhamn,Finnhamn,3.4,1,https://upload.wikimedia.org/wikipedia/commons/thumb/e/eb/SAT_Finnhamn_2025_april_sopor_toalett.jpg/1024px-SAT_Finnhamn_2025_april_sopor_toalett.jpg,"opening_hours, toilets:num_chambers, unisex, drinking_water, changing_table, toilets:paper_supplied, indoor, operator, website, source",Category:Lilla_Jolpan_toalett_node_12836949181,https://commons.wikimedia.org/wiki/Category:Lilla_Jolpan_toalett_node_12836949181,[],no,,no,no,,,,,,,,,,,Category:Lilla_Jolpan_toalett_node_12836949181,https://upload.wikimedia.org/wikipedia/commons/thumb/e/eb/SAT_Finnhamn_2025_april_sopor_toalett.jpg/1024px-SAT_Finnhamn_2025_april_sopor_toalett.jpg,,no,
12849416944,node,58.87755119999999,18.1324348,SAT Nåttarö,Nåttarö,79.3,1,https://upload.wikimedia.org/wikipedia/commons/3/31/SATN%C3%A5ttar%C3%B6_2025_april_toalett_Storsand.jpg,"wheelchair, toilets:num_chambers, drinking_water, changing_table, indoor, website, source",Category:Nåttarö_public_toilets,https://commons.wikimedia.org/wiki/Category:N%C3%A5ttar%C3%B6_public_toilets,[],public,24/7,no,,,yes,,,yes,,Skärgårdsstiftelsen,,,,Category:Nåttarö_public_toilets,https://upload.wikimedia.org/wikipedia/commons/3/31/SATN%C3%A5ttar%C3%B6_2025_april_toalett_Storsand.jpg,,no,
13037259125,node,58.8803181,18.111406799999997,SAT Nåttarö,Nåttarö,6.1,3,,"fee, toilets:num_chambers, drinking_water, changing_table, toilets:paper_supplied, indoor, website, source",,,[],official,24/7,,yes,,yes,,,,,Skärgårdsstiftelsen,,,,,,,,
13041364818,node,58.880430099999984,18.116073400000005,SAT Nåttarö,Nåttarö,63.2,1,,"opening_hours, fee, wheelchair, toilets:num_chambers, unisex, changing_table, toilets:paper_supplied, indoor, operator, website, source",,,[],yes,,,,,,yes,,,,,,,,,,,yes,
13041911527,node,58.744608299999996,17.8652507,SAT Landsort,Öja,9.3,1,,"toilets:num_chambers, drinking_water, indoor, operator, website, source",,,[],yes,24/7,no,no,,yes,,no,yes,,,,,,,,,yes,
13045581191,node,58.91968700000001,18.1764135,SAT Rånö,Rånö,31.6,2,,"opening_hours, toilets:num_chambers, drinking_water, toilets:paper_supplied, indoor, operator, website, source",,,[],customers,,no,no,,yes,,no,,,,,,,,,,no,toilets:position=seated
13045581192,node,58.9198493,18.1751578,SAT Rånö,Rånö,10.1,1,,"toilets:num_chambers, drinking_water, toilets:paper_supplied, indoor, website, source",,,[],yes,24/7,no,yes,,yes,,yes,,,Skärgårdsstiftelsen,,,,,,,no,toilets:position=seated
13050416339,node,58.97851279999998,18.3634318,SAT Utö,Utö,1.9,1,,"opening_hours, wheelchair, toilets:num_chambers, drinking_water, toilets:paper_supplied, indoor, operator, website, source",,,[],yes,,no,,,yes,,no,,,,,,,,,,,
13061745475,node,59.48247860000001,18.824970899999997,SAT Finnhamn,Finnhamn,27.1,1,,"opening_hours, wheelchair, toilets:num_chambers, drinking_water, changing_table, toilets:paper_supplied, indoor, operator, website, source",,,[],customers,,no,,,yes,,,,,,,,,,,,yes,
13061781619,node,59.481327699999994,18.8234623,SAT Finnhamn,Finnhamn,52.5,3,,"opening_hours, unisex, drinking_water, toilets:paper_supplied, indoor, operator, website, source",,,[],yes,,no,no,3,,,no,,,,,,,,,,no,
13063312449,node,59.469258200000006,18.7607388,SAT Ingmarsö,Ingmarsö,23.1,2,,"fee, drinking_water, toilets:paper_supplied, indoor, operator, website, source",,,[],yes,24/7,,no,2,yes,,no,,,,,,,,,,no,
13063317163,node,59.46726720000001,18.757257,SAT Ingmarsö,Ingmarsö,21.6,1,,"opening_hours, toilets:num_chambers, unisex, drinking_water, toilets:paper_supplied, indoor, operator, website, source",,,[],customers,,no,no,,,,no,,,,,,,,,,no,
13065225866,node,59.4754826,18.8084516,SAT Finnhamn,Finnhamn,55.8,1,https://upload.wikimedia.org/wikipedia/commons/thumb/b/bd/Finnhamn_20250811_SAT_01.jpg/1536px-Finnhamn_20250811_SAT_01.jpg,"toilets:num_chambers, drinking_water, toilets:paper_supplied, indoor, operator, website, source",,,[],yes,24/7,no,no,,yes,,no,,,,,,,,https://upload.wikimedia.org/wikipedia/commons/thumb/b/bd/Finnhamn_20250811_SAT_01.jpg/1536px-Finnhamn_20250811_SAT_01.jpg,,,
13067993747,node,59.84458310000001,19.1103746,SAT Arholma,Arholma,25.2,1,https://upload.wikimedia.org/wikipedia/commons/thumb/f/fe/Vandrarhem_Bull_August_g%C3%A5rd_20250813_14.jpg/1536px-Vandrarhem_Bull_August_g%C3%A5rd_20250813_14.jpg,"access, toilets:num_chambers, drinking_water, changing_table, toilets:paper_supplied, indoor, operator, website, source",Category:Bull-August,https://commons.wikimedia.org/wiki/Category:Bull-August,[],,24/7,no,no,,yes,,,,,,,,,Category:Bull-August,https://upload.wikimedia.org/wikipedia/commons/thumb/f/fe/Vandrarhem_Bull_August_g%C3%A5rd_20250813_14.jpg/1536px-Vandrarhem_Bull_August_g%C3%A5rd_20250813_14.jpg,,yes,
13072501854,node,59.8501324,19.1092645,SAT Arholma,Arholma,21.2,1,,"opening_hours, fee, wheelchair, toilets:num_chambers, unisex, drinking_water, changing_table, toilets:paper_supplied, indoor, operator, website, source",,,[],customers,,,,,,,,,,,,,,,,,,
292553972,way,59.85022989999999,19.1096908,SAT Arholma,Arholma,4.5,1,,"toilets:num_chambers, drinking_water, toilets:paper_supplied, indoor, operator, website, source",,,[],yes,24/7,no,no,,yes,,no,,,,,,,,,,no,
322935651,way,58.88079079999999,18.1199857,SAT Nåttarö,Nåttarö,38.7,1,,"opening_hours, wheelchair, toilets:num_chambers, drinking_water, changing_table, toilets:paper_supplied, indoor, operator, website, source",,,[],yes,,no,,,yes,,,,,,,,,,,,yes,
322935663,way,58.8867808,18.1369827,SAT Nåttarö,Nåttarö,11.4,8,,"toilets:num_chambers, drinking_water, toilets:paper_supplied, indoor, website, source",,,[],yes,24/7,no,no,,yes,,no,,,Skärgårds stiftelsen,,,,,,,no,
506814565,way,59.4787146,18.812992600000005,SAT Finnhamn,Finnhamn,13.9,1,,"access, toilets:num_chambers, drinking_water, toilets:paper_supplied, indoor, operator, website, source",,,[],,24/7,no,no,,yes,,no,,,,,,,,,,,
507890625,way,59.77867059999998,19.091762,SAT Lidö,Lidö,83.2,2,,"opening_hours, fee, wheelchair, toilets:num_chambers, unisex, drinking_water, changing_table, indoor, website, source",,,[],yes,,,,,,,,yes,,Skärgårdsstiftelsen,,,,,,,no,
703944414,way,59.04464180000001,18.5124711,SAT Fjärdlång,Fjärdlång,180.8,1,,"opening_hours, wheelchair, toilets:num_chambers, changing_table, toilets:paper_supplied, indoor, website, source",,,[],yes,,no,,,yes,no,,,,Skärgårdsstiftelsen,,,,,,,,seated
833809121,way,59.1930304,18.7155773,SAT Nämdö,Nämdö,7.4,1,,"opening_hours, wheelchair, toilets:num_chambers, drinking_water, changing_table, toilets:paper_supplied, indoor, website, source",,,[],yes,,no,,,yes,,,,,Skärgårdsstiftelsen,,,,,,,,seated
1089639090,way,58.881000599999986,18.1126803,SAT Nåttarö,Nåttarö,91.7,1,,"toilets:num_chambers, drinking_water, changing_table, toilets:paper_supplied, indoor, operator, website, source",,,[],yes,same as Nåttarö Krog,no,limited,,yes,,,,,,,,,,,,,
1089639096,way,58.8816973,18.1173863,SAT Nåttarö,Nåttarö,164.9,1,,"access, opening_hours, toilets:num_chambers, unisex, drinking_water, changing_table, toilets:paper_supplied, indoor, operator, website, source",,,[],,,no,no,,,,,,,,,,,,,,,
1089664761,way,58.8816407,18.1140001,SAT Nåttarö,Nåttarö,192.3,1,,"access, opening_hours, fee, wheelchair, toilets:num_chambers, drinking_water, changing_table, toilets:paper_supplied, indoor, operator, website, source",,,[],,,,,,yes,,,,,,,,,,,,,
1145185653,way,59.27390569999999,18.924231799999998,SAT Sandhamn,Sandön,6.6,1,,"opening_hours, fee, toilets:num_chambers, drinking_water, toilets:paper_supplied, indoor, operator, website, source",,,[],yes,,,no,,yes,,no,,,,,,,,,,no,
1145185654,way,59.274363399999984,18.921221,SAT Sandhamn,Sandön,6.5,1,,"opening_hours, fee, toilets:num_chambers, drinking_water, toilets:paper_supplied, indoor, operator, website, source",,,[],yes,,,no,,yes,,no,,,,,,,,,,no,
1305192614,way,59.4822023,18.8232442,SAT Finnhamn,Finnhamn,14.3,1,,"toilets:num_chambers, drinking_water, changing_table, toilets:paper_supplied, indoor, operator, website, source",,,[],yes,24/7,no,no,,yes,,,,,,,,,,,,no,
1305276862,way,59.4822118,18.8120817,SAT Finnhamn,Finnhamn,25.5,1,,"access, opening_hours, fee, wheelchair, toilets:num_chambers, unisex, drinking_water, changing_table, toilets:paper_supplied, indoor, operator, website, source",,,[],,,,,,,,,,,,,,,,,,,
1305279425,way,59.40703280000001,18.8854126,SAT Möja,Möja,8.5,1,,"opening_hours, fee, toilets:num_chambers, drinking_water, toilets:paper_supplied, indoor, operator, website, source",,,[],customers,,,no,,yes,,no,,,,,,,,,,,
1305281226,way,59.41031190000002,18.8871311,SAT Möja,Möja,33.3,1,,"opening_hours, fee, wheelchair, toilets:num_chambers, drinking_water, changing_table, toilets:paper_supplied, indoor, operator, website, source",,,[],customers,,,,,yes,,,,,,,,,,,,,
1416467437,way,59.03652229999997,18.5129033,SAT Fjärdlång,Fjärdlång,93.4,4,https://upload.wikimedia.org/wikipedia/commons/4/47/SAT_Fj%C3%A4rdl%C3%A5ng_2025_april_toalett_reception.jpg,"wheelchair, toilets:num_chambers, drinking_water, indoor, operator, website, source",Category:Fjärdlång_public_toilets,https://commons.wikimedia.org/wiki/Category:Fj%C3%A4rdl%C3%A5ng_public_toilets,[],yes,24/7,no,,,yes,,no,yes,,,,,,Category:Fjärdlång_public_toilets,https://upload.wikimedia.org/wikipedia/commons/4/47/SAT_Fj%C3%A4rdl%C3%A5ng_2025_april_toalett_reception.jpg,,no,
1418915972,way,58.88687939999999,18.1370408,SAT Nåttarö,Nåttarö,11.4,8,,"toilets:num_chambers, drinking_water, toilets:paper_supplied, indoor, website, source",,,[],yes,24/7,no,no,,yes,,no,,,Skärgårds stiftelsen,,,,,,,no,
1422474180,way,59.850152800000004,19.1092687,SAT Arholma,Arholma,19.3,1,,"opening_hours, fee, wheelchair, toilets:num_chambers, unisex, drinking_water, toilets:paper_supplied, indoor, operator, website, source",,,[],customers,,,,,,,no,,,,,,,,,,,
